{
  "norad_id": 37179,
  "name": "SHIJIAN-6 04A (SJ-6 04A)",
  "history": [
    {
      "epoch": "2026-04-11T21:23:43.631808Z",
      "apogee_km": 528.579187681733,
      "perigee_km": 500.20540158744006,
      "latitude_deg": -5.0037313753267855e-05,
      "longitude_deg": -38.210051034654064,
      "height_km": 518.4970118911342,
      "semi_major_axis_km": 6892.529294634586,
      "eccentricity": 0.0020583,
      "inclination_deg": 97.8354,
      "raan_deg": 122.8262,
      "arg_perigee_deg": 94.4065,
      "mean_anomaly_deg": 265.9519,
      "mean_motion_rev_day": 15.17172042
    },
    {
      "epoch": "2026-04-13T06:38:09.537792Z",
      "apogee_km": 528.4614893068965,
      "perigee_km": 500.25863198420484,
      "latitude_deg": 2.5855244503068693e-05,
      "longitude_deg": -176.75084357235562,
      "height_km": 517.4117094792289,
      "semi_major_axis_km": 6892.49706064555,
      "eccentricity": 0.00204591,
      "inclination_deg": 97.8342,
      "raan_deg": 124.2585,
      "arg_perigee_deg": 90.1498,
      "mean_anomaly_deg": 270.2079,
      "mean_motion_rev_day": 15.17182685
    },
    {
      "epoch": "2026-04-14T20:37:29.548992Z",
      "apogee_km": 528.4251924052223,
      "perigee_km": 500.2281235803739,
      "latitude_deg": 5.133671589368568e-06,
      "longitude_deg": -26.508667371144604,
      "height_km": 516.1279210109993,
      "semi_major_axis_km": 6892.463657992798,
      "eccentricity": 0.0020455,
      "inclination_deg": 97.8343,
      "raan_deg": 125.8942,
      "arg_perigee_deg": 85.0618,
      "mean_anomaly_deg": 275.2949,
      "mean_motion_rev_day": 15.17193714
    },
    {
      "epoch": "2026-04-15T20:22:03.963936Z",
      "apogee_km": 528.4413330173411,
      "perigee_km": 500.1657848683344,
      "latitude_deg": -1.2164814554626548e-05,
      "longitude_deg": -22.604844661852706,
      "height_km": 515.3174751676819,
      "semi_major_axis_km": 6892.440558942838,
      "eccentricity": 0.0020512,
      "inclination_deg": 97.834,
      "raan_deg": 126.9165,
      "arg_perigee_deg": 81.8627,
      "mean_anomaly_deg": 278.4931,
      "mean_motion_rev_day": 15.17201341
    },
    {
      "epoch": "2026-04-16T20:06:38.024640Z",
      "apogee_km": 528.4771421640135,
      "perigee_km": 500.09827267368746,
      "latitude_deg": 1.8777393519497082e-05,
      "longitude_deg": -18.698948536173603,
      "height_km": 514.5993515770638,
      "semi_major_axis_km": 6892.42470741885,
      "eccentricity": 0.0020587,
      "inclination_deg": 97.8337,
      "raan_deg": 127.9394,
      "arg_perigee_deg": 79.0156,
      "mean_anomaly_deg": 281.3391,
      "mean_motion_rev_day": 15.17206575
    },
    {
      "epoch": "2026-04-17T23:01:08.151168Z",
      "apogee_km": 528.37345919974,
      "perigee_km": 500.15472848934223,
      "latitude_deg": 8.147177937328526e-05,
      "longitude_deg": -62.270670322905076,
      "height_km": 513.7383470541404,
      "semi_major_axis_km": 6892.401093844541,
      "eccentricity": 0.00204709,
      "inclination_deg": 97.8331,
      "raan_deg": 129.0983,
      "arg_perigee_deg": 75.4586,
      "mean_anomaly_deg": 284.8916,
      "mean_motion_rev_day": 15.17214372
    },
    {
      "epoch": "2026-04-18T21:10:43.190112Z",
      "apogee_km": 528.2786669979487,
      "perigee_km": 500.1963762470514,
      "latitude_deg": -3.813596552186957e-05,
      "longitude_deg": -34.62201741710516,
      "height_km": 513.0477691068339,
      "semi_major_axis_km": 6892.3745216225,
      "eccentricity": 0.0020372,
      "inclination_deg": 97.8329,
      "raan_deg": 130.053,
      "arg_perigee_deg": 72.5606,
      "mean_anomaly_deg": 287.7851,
      "mean_motion_rev_day": 15.17223146
    },
    {
      "epoch": "2026-04-19T20:55:15.737088Z",
      "apogee_km": 528.1675567196371,
      "perigee_km": 500.231538225421,
      "latitude_deg": 5.5630780024791416e-05,
      "longitude_deg": -30.709808401736527,
      "height_km": 512.3004704933676,
      "semi_major_axis_km": 6892.336547472529,
      "eccentricity": 0.0020266,
      "inclination_deg": 97.8327,
      "raan_deg": 131.0759,
      "arg_perigee_deg": 69.3796,
      "mean_anomaly_deg": 290.9608,
      "mean_motion_rev_day": 15.17235685
    },
    {
      "epoch": "2026-04-20T14:19:55.125120Z",
      "apogee_km": 528.1131222907543,
      "perigee_km": 500.219419569039,
      "latitude_deg": 2.9435125808260716e-05,
      "longitude_deg": 68.16173495627434,
      "height_km": 511.69002811140336,
      "semi_major_axis_km": 6892.303270929897,
      "eccentricity": 0.00202354,
      "inclination_deg": 97.8326,
      "raan_deg": 131.8266,
      "arg_perigee_deg": 66.7843,
      "mean_anomaly_deg": 293.5518,
      "mean_motion_rev_day": 15.17246673
    }
  ]
}